ONEWEB-0357             
1 49219U 21083AK  23059.28960914  .00000047  00000+0  83392-4 0  9996
2 49219  87.9317 154.2845 0001913 113.6344 246.4990 13.20771622 77769
ONEWEB-0357             
1 49219U 21083AK  23059.28960914  .00000047  00000+0  83392-4 0  9996
2 49219  87.9317 154.2845 0001913 113.6344 246.4990 13.20771622 79064
ONEWEB-0357             
1 49219U 21083AK  23059.81990731  .00000026  00000+0  31819-4 0  9999
2 49219  87.9313 154.1794 0001909 113.9473 246.1861 13.20770966 77830
ONEWEB-0357             
1 49219U 21083AK  23060.27444709  .00000127  00000+0  28148-3 0  9992
2 49219  87.9310 154.0892 0001932 113.0745 247.0593 13.20771962 77899
ONEWEB-0357             
1 49219U 21083AK  23060.95625820  .00000088  00000+0  18380-3 0  9995
2 49219  87.9309 153.9542 0001945 112.8313 247.3026 13.20771673 79287
ONEWEB-0357             
1 49219U 21083AK  23061.78958391 -.00000135  00000+0 -36472-3 0  9996
2 49219  87.9304 153.7888 0001996 110.8798 249.2549 13.20771001 78098
ONEWEB-0357             
1 49219U 21083AK  23062.31987942  .00000025  00000+0  28499-4 0  9997
2 49219  87.9304 153.6839 0002001 110.8187 249.3160 13.20772962 78168
ONEWEB-0357             
1 49219U 21083AK  23062.31987942  .00000025  00000+0  28499-4 0  9997
2 49219  87.9304 153.6839 0002001 110.8187 249.3160 13.20772962 79462
